{"type": "FeatureCollection", "features": [ {"type": "Feature", "properties": {"norad_id": 57401, "name": "TIANMU-1 09", "group": "weather", "lat": 81.88114946592756, "lon": -74.31509788516549, "alt_km": 469.79209024736065, "timestamp": "2025-12-18T23:35:48.689238+00:00", "meta": {"OBJECT_NAME": "TIANMU-1 09", "OBJECT_ID": "2023-101C", "EPOCH": "2025-12-18T15:19:54.265728", "MEAN_MOTION": 15.28169185, "ECCENTRICITY": 0.00066036, "INCLINATION": 97.2818, "RA_OF_ASC_NODE": 41.6664, "ARG_OF_PERICENTER": 67.8116, "MEAN_ANOMALY": 292.3824, "EPHEMERIS_TYPE": 0, "CLASSIFICATION_TYPE": "U", "NORAD_CAT_ID": 57401, "ELEMENT_SET_NO": 999, "REV_AT_EPOCH": 13405, "BSTAR": 0.00022571164, "MEAN_MOTION_DOT": 6.128e-05, "MEAN_MOTION_DDOT": 0}, "tle": {"line1": "1 57401U 23101C   25352.63882252  .00006128  00000+0  22571-3 0  9993", "line2": "2 57401  97.2818  41.6664 0006603  67.8116 292.3824 15.28169185134054"}}, "geometry": {"type": "Point", "coordinates": [-74.31509788516549, 81.88114946592756]}}, {"type": "Feature", "properties": {"norad_id": 57402, "name": "TIANMU-1 10", "group": "weather", "lat": -81.30890374948916, "lon": 165.98930027599152, "alt_km": 494.0251341270405, "timestamp": "2025-12-18T23:35:48.689248+00:00", "meta": {"OBJECT_NAME": "TIANMU-1 10", "OBJECT_ID": "2023-101D", "EPOCH": "2025-12-18T14:34:55.510752", "MEAN_MOTION": 15.28160619, "ECCENTRICITY": 0.00083096, "INCLINATION": 97.2898, "RA_OF_ASC_NODE": 42.4917, "ARG_OF_PERICENTER": 66.5894, "MEAN_ANOMALY": 293.6219, "EPHEMERIS_TYPE": 0, "CLASSIFICATION_TYPE": "U", "NORAD_CAT_ID": 57402, "ELEMENT_SET_NO": 999, "REV_AT_EPOCH": 13404, "BSTAR": 0.0002319672, "MEAN_MOTION_DOT": 6.3e-05, "MEAN_MOTION_DDOT": 0}, "tle": {"line1": "1 57402U 23101D   25352.60758693  .00006300  00000+0  23197-3 0  9999", "line2": "2 57402  97.2898  42.4917 0008309  66.5894 293.6219 15.28160619134041"}}, "geometry": {"type": "Point", "coordinates": [165.98930027599152, -81.30890374948916]}}, {"type": "Feature", "properties": {"norad_id": 57490, "name": "FENGYUN 3F", "group": "weather", "lat": -74.00196068378975, "lon": -151.13698782119343, "alt_km": 833.4317897402898, "timestamp": "2025-12-18T23:35:48.689258+00:00", "meta": {"OBJECT_NAME": "FENGYUN 3F", "OBJECT_ID": "2023-111A", "EPOCH": "2025-12-18T15:37:39.355680", "MEAN_MOTION": 14.19895087, "ECCENTRICITY": 7.256e-05, "INCLINATION": 98.7077, "RA_OF_ASC_NODE": 60.849, "ARG_OF_PERICENTER": 110.997, "MEAN_ANOMALY": 249.1284, "EPHEMERIS_TYPE": 0, "CLASSIFICATION_TYPE": "U", "NORAD_CAT_ID": 57490, "ELEMENT_SET_NO": 999, "REV_AT_EPOCH": 12324, "BSTAR": 5.3008185e-05, "MEAN_MOTION_DOT": 6.9e-07, "MEAN_MOTION_DDOT": 0}, "tle": {"line1": "1 57490U 23111A   25352.65114995  .00000069  00000+0  53008-4 0  9994", "line2": "2 57490  98.7077  60.8490 0000725 110.9970 249.1284 14.19895087123247"}}, "geometry": {"type": "Point", "coordinates": [-151.13698782119343, -74.00196068378975]}}, {"type": "Feature", "properties": {"norad_id": 58584, "name": "ARKTIKA-M 2", "group": "weather", "lat": 61.05253086891818, "lon": -119.81799539597189, "alt_km": 37111.22708155337, "timestamp": "2025-12-18T23:35:48.689270+00:00", "meta": {"OBJECT_NAME": "ARKTIKA-M 2", "OBJECT_ID": "2023-198A", "EPOCH": "2025-12-17T19:31:00.124032", "MEAN_MOTION": 2.0060326, "ECCENTRICITY": 0.68652638, "INCLINATION": 63.225, "RA_OF_ASC_NODE": 174.3391, "ARG_OF_PERICENTER": 268.0846, "MEAN_ANOMALY": 18.8392, "EPHEMERIS_TYPE": 0, "CLASSIFICATION_TYPE": "U", "NORAD_CAT_ID": 58584, "ELEMENT_SET_NO": 999, "REV_AT_EPOCH": 1468, "BSTAR": 0, "MEAN_MOTION_DOT": 2.02e-06, "MEAN_MOTION_DDOT": 0}, "tle": {"line1": "1 58584U 23198A   25351.81319588  .00000202  00000+0  00000+0 0  9994", "line2": "2 58584  63.2250 174.3391 6865263 268.0846  18.8392  2.00603260 14687"}}, "geometry": {"type": "Point", "coordinates": [-119.81799539597189, 61.05253086891818]}}, {"type": "Feature", "properties": {"norad_id": 58645, "name": "TIANMU-1 11", "group": "weather", "lat": 6.152708811030508, "lon": 11.698771151474205, "alt_km": 493.29567010729625, "timestamp": "2025-12-18T23:35:48.689282+00:00", "meta": {"OBJECT_NAME": "TIANMU-1 11", "OBJECT_ID": "2023-205A", "EPOCH": "2025-12-18T15:41:38.857344", "MEAN_MOTION": 15.24669964, "ECCENTRICITY": 0.00076087, "INCLINATION": 97.3597, "RA_OF_ASC_NODE": 12.1736, "ARG_OF_PERICENTER": 285.4761, "MEAN_ANOMALY": 74.5636, "EPHEMERIS_TYPE": 0, "CLASSIFICATION_TYPE": "U", "NORAD_CAT_ID": 58645, "ELEMENT_SET_NO": 999, "REV_AT_EPOCH": 10999, "BSTAR": 0.0002014326, "MEAN_MOTION_DOT": 4.909e-05, "MEAN_MOTION_DDOT": 0}, "tle": {"line1": "1 58645U 23205A   25352.65392196  .00004909  00000+0  20143-3 0  9992", "line2": "2 58645  97.3597  12.1736 0007608 285.4761  74.5636 15.24669964109995"}}, "geometry": {"type": "Point", "coordinates": [11.698771151474205, 6.152708811030508]}}, {"type": "Feature", "properties": {"norad_id": 58646, "name": "TIANMU-1 12", "group": "weather", "lat": -35.558148380518006, "lon": -172.99988383171157, "alt_km": 495.80532440697243, "timestamp": "2025-12-18T23:35:48.689292+00:00", "meta": {"OBJECT_NAME": "TIANMU-1 12", "OBJECT_ID": "2023-205B", "EPOCH": "2025-12-18T13:12:04.396032", "MEAN_MOTION": 15.24554009, "ECCENTRICITY": 0.00057635, "INCLINATION": 97.3585, "RA_OF_ASC_NODE": 11.8751, "ARG_OF_PERICENTER": 264.9053, "MEAN_ANOMALY": 95.1527, "EPHEMERIS_TYPE": 0, "CLASSIFICATION_TYPE": "U", "NORAD_CAT_ID": 58646, "ELEMENT_SET_NO": 999, "REV_AT_EPOCH": 10996, "BSTAR": 0.00022992511, "MEAN_MOTION_DOT": 5.593e-05, "MEAN_MOTION_DDOT": 0}, "tle": {"line1": "1 58646U 23205B   25352.55005088  .00005593  00000+0  22993-3 0  9998", "line2": "2 58646  97.3585  11.8751 0005763 264.9053  95.1527 15.24554009109960"}}, "geometry": {"type": "Point", "coordinates": [-172.99988383171157, -35.558148380518006]}}, {"type": "Feature", "properties": {"norad_id": 58647, "name": "TIANMU-1 13", "group": "weather", "lat": 32.434869111219264, "lon": 7.791701178763731, "alt_km": 493.9563941067345, "timestamp": "2025-12-18T23:35:48.689302+00:00", "meta": {"OBJECT_NAME": "TIANMU-1 13", "OBJECT_ID": "2023-205C", "EPOCH": "2025-12-18T15:34:39.412128", "MEAN_MOTION": 15.2459791, "ECCENTRICITY": 0.0006201, "INCLINATION": 97.3613, "RA_OF_ASC_NODE": 12.1758, "ARG_OF_PERICENTER": 240.6512, "MEAN_ANOMALY": 119.4107, "EPHEMERIS_TYPE": 0, "CLASSIFICATION_TYPE": "U", "NORAD_CAT_ID": 58647, "ELEMENT_SET_NO": 999, "REV_AT_EPOCH": 10997, "BSTAR": 0.00020672949, "MEAN_MOTION_DOT": 5.028e-05, "MEAN_MOTION_DDOT": 0}, "tle": {"line1": "1 58647U 23205C   25352.64906727  .00005028  00000+0  20673-3 0  9995", "line2": "2 58647  97.3613  12.1758 0006201 240.6512 119.4107 15.24597910109976"}}, "geometry": {"type": "Point", "coordinates": [7.791701178763731, 32.434869111219264]}}, {"type": "Feature", "properties": {"norad_id": 58648, "name": "TIANMU-1 14", "group": "weather", "lat": 55.82395820765359, "lon": -157.18689938247684, "alt_km": 489.286634321179, "timestamp": "2025-12-18T23:35:48.689315+00:00", "meta": {"OBJECT_NAME": "TIANMU-1 14", "OBJECT_ID": "2023-205D", "EPOCH": "2025-12-18T15:10:50.681856", "MEAN_MOTION": 15.24581068, "ECCENTRICITY": 0.00069405, "INCLINATION": 97.3546, "RA_OF_ASC_NODE": 11.5028, "ARG_OF_PERICENTER": 246.787, "MEAN_ANOMALY": 113.2637, "EPHEMERIS_TYPE": 0, "CLASSIFICATION_TYPE": "U", "NORAD_CAT_ID": 58648, "ELEMENT_SET_NO": 999, "REV_AT_EPOCH": 10997, "BSTAR": 0.00020692672, "MEAN_MOTION_DOT": 5.031e-05, "MEAN_MOTION_DDOT": 0}, "tle": {"line1": "1 58648U 23205D   25352.63253104  .00005031  00000+0  20693-3 0  9995", "line2": "2 58648  97.3546  11.5028 0006940 246.7870 113.2637 15.24581068109976"}}, "geometry": {"type": "Point", "coordinates": [-157.18689938247684, 55.82395820765359]}}, {"type": "Feature", "properties": {"norad_id": 58660, "name": "TIANMU-1 19", "group": "weather", "lat": 81.6457618316605, "lon": -13.144893281340472, "alt_km": 476.46075906432816, "timestamp": "2025-12-18T23:35:48.689326+00:00", "meta": {"OBJECT_NAME": "TIANMU-1 19", "OBJECT_ID": "2023-208A", "EPOCH": "2025-12-18T13:45:25.816608", "MEAN_MOTION": 15.27954681, "ECCENTRICITY": 0.00043575, "INCLINATION": 97.4393, "RA_OF_ASC_NODE": 103.5991, "ARG_OF_PERICENTER": 227.0306, "MEAN_ANOMALY": 133.0568, "EPHEMERIS_TYPE": 0, "CLASSIFICATION_TYPE": "U", "NORAD_CAT_ID": 58660, "ELEMENT_SET_NO": 999, "REV_AT_EPOCH": 10971, "BSTAR": 0.00029302191, "MEAN_MOTION_DOT": 7.921e-05, "MEAN_MOTION_DDOT": 0}, "tle": {"line1": "1 58660U 23208A   25352.57321547  .00007921  00000+0  29302-3 0  9998", "line2": "2 58660  97.4393 103.5991 0004357 227.0306 133.0568 15.27954681109711"}}, "geometry": {"type": "Point", "coordinates": [-13.144893281340472, 81.6457618316605]}}, {"type": "Feature", "properties": {"norad_id": 58661, "name": "TIANMU-1 20", "group": "weather", "lat": -14.723362523841487, "lon": -77.5040319133139, "alt_km": 480.001784799897, "timestamp": "2025-12-18T23:35:48.689335+00:00", "meta": {"OBJECT_NAME": "TIANMU-1 20", "OBJECT_ID": "2023-208B", "EPOCH": "2025-12-18T14:53:41.343360", "MEAN_MOTION": 15.29145097, "ECCENTRICITY": 0.00064796, "INCLINATION": 97.4331, "RA_OF_ASC_NODE": 104.0998, "ARG_OF_PERICENTER": 240.9891, "MEAN_ANOMALY": 119.07, "EPHEMERIS_TYPE": 0, "CLASSIFICATION_TYPE": "U", "NORAD_CAT_ID": 58661, "ELEMENT_SET_NO": 999, "REV_AT_EPOCH": 10979, "BSTAR": 0.00027147394, "MEAN_MOTION_DOT": 7.608e-05, "MEAN_MOTION_DDOT": 0}, "tle": {"line1": "1 58661U 23208B   25352.62061740  .00007608  00000+0  27147-3 0  9998", "line2": "2 58661  97.4331 104.0998 0006479 240.9891 119.0700 15.29145097109792"}}, "geometry": {"type": "Point", "coordinates": [-77.5040319133139, -14.723362523841487]}}]}